H1 CPF 01  gfz 2021 01 12 01  5121 terrasarx 
H2 0702601  6201 31698    2021 01 12 00 59 42 2021 01 17 00 00 42   120 1 1  0 0 0
H9
10 0 59228  12942.000000  0    3377773.120   3303549.041   5003600.045
10 0 59228  13062.000000  0    3965167.935   3572360.511   4346473.690
10 0 59228  13182.000000  0    4487341.603   3769029.926   3612846.411
10 0 59228  13302.000000  0    4933864.628   3891335.011   2815613.784
10 0 59228  13422.000000  0    5295609.760   3938531.375   1968803.559
10 0 59228  13542.000000  0    5564943.754   3911344.308   1087326.322
10 0 59228  13662.000000  0    5735891.617   3811930.772    186706.432
10 0 59228  13782.000000  0    5804268.336   3643811.225   -717200.097
10 0 59228  13902.000000  0    5767774.330   3411773.544  -1608493.516
10 0 59228  14022.000000  0    5626052.906   3121751.386  -2471518.126
10 0 59228  14142.000000  0    5380708.073   2780680.950  -3291143.076
10 0 59228  14262.000000  0    5035284.367   2396339.964  -4053030.814
10 0 59228  14382.000000  0    4595208.373   1977172.447  -4743889.320
10 0 59228  14502.000000  0    4067692.191   1532103.262  -5351699.725
10 0 59228  14622.000000  0    3461605.956   1070349.372  -5865917.237
10 0 59228  14742.000000  0    2787320.678    601230.984  -6277644.654
10 0 59228  14862.000000  0    2056524.616    133986.104  -6579774.774
10 0 59228  14982.000000  0    1282019.163   -322407.173  -6767101.536
10 0 59228  15102.000000  0     477496.234   -759399.238  -6836401.880
10 0 59228  15222.000000  0    -342701.231  -1169025.039  -6786484.097
10 0 59228  15342.000000  0   -1163828.330  -1544044.824  -6618205.253
10 0 59228  15462.000000  0   -1970997.039  -1878069.135  -6334459.056
10 0 59228  15582.000000  0   -2749440.446  -2165666.178  -5940130.878
10 0 59228  15702.000000  0   -3484777.298  -2402449.460  -5442022.521
10 0 59228  15822.000000  0   -4163276.606  -2585146.178  -4848747.339
10 0 59228  15942.000000  0   -4772116.935  -2711643.671  -4170592.369
10 0 59228  16062.000000  0   -5299633.638  -2781012.678  -3419350.135
10 0 59228  16182.000000  0   -5735550.504  -2793506.947  -2608121.684
10 0 59228  16302.000000  0   -6071189.633  -2750538.327  -1751092.449
10 0 59228  16422.000000  0   -6299653.783  -2654627.974   -863285.122
10 0 59228  16542.000000  0   -6415976.644  -2509333.950     39706.707
10 0 59228  16662.000000  0   -6417236.260  -2319156.799    941998.272
10 0 59228  16782.000000  0   -6302628.685  -2089425.229   1827701.840
10 0 59228  16902.000000  0   -6073497.271  -1826164.711   2681216.456
10 0 59228  17022.000000  0   -5733318.555  -1535952.400   3487510.424
10 0 59228  17142.000000  0   -5287646.245  -1225762.272   4232393.761
10 0 59228  17262.000000  0   -4744010.944   -902803.912   4902771.998
10 0 59228  17382.000000  0   -4111783.780   -574360.455   5486875.106
10 0 59228  17502.000000  0   -3402006.998   -247628.875   5974462.422
10 0 59228  17622.000000  0   -2627192.316     70434.812   6356998.532
10 0 59228  17742.000000  0   -1801092.930    373260.469   6627796.551
10 0 59228  17862.000000  0    -938454.700    654796.055   6782128.647
10 0 59228  17982.000000  0     -54751.190    909626.708   6817302.991
10 0 59228  18102.000000  0     834093.459   1133077.583   6732707.218
10 0 59228  18222.000000  0    1711990.303   1321299.531   6529818.561
10 0 59228  18342.000000  0    2562975.824   1471335.726   6212179.462
10 0 59228  18462.000000  0    3371502.046   1581168.071   5785340.279
10 0 59228  18582.000000  0    4122723.360   1649742.943   5256767.647
10 0 59228  18702.000000  0    4802772.066   1676975.988   4635719.716
10 0 59228  18822.000000  0    5399021.353   1663736.656   3933091.776
10 0 59228  18942.000000  0    5900330.605   1611811.323   3161227.701
10 0 59228  19062.000000  0    6297261.442   1523846.002   2333702.854
10 0 59228  19182.000000  0    6582265.345   1403269.297   1465084.646
10 0 59228  19302.000000  0    6749835.074   1254198.427    570670.209
10 0 59228  19422.000000  0    6796615.898   1081330.074   -333789.862
10 0 59228  19542.000000  0    6721474.626    889818.639  -1232378.391
10 0 59228  19662.000000  0    6525521.658    685144.512  -2109300.484
10 0 59228  19782.000000  0    6212089.328    472976.135  -2949167.849
10 0 59228  19902.000000  0    5786666.111    259030.510  -3737273.889
10 0 59228  20022.000000  0    5256788.839     48934.890  -4459853.484
10 0 59228  20142.000000  0    4631895.127   -151906.846  -5104320.975
10 0 59228  20262.000000  0    3923143.261   -338439.542  -5659482.112
10 0 59228  20382.000000  0    3143204.128   -506071.596  -6115719.930
10 0 59228  20502.000000  0    2306027.431   -650777.431  -6465151.489
10 0 59228  20622.000000  0    1426588.785   -769184.663  -6701751.668
10 0 59228  20742.000000  0     520623.633   -858646.046  -6821447.229
10 0 59228  20862.000000  0    -395651.036   -917293.738  -6822179.657
10 0 59228  20982.000000  0   -1305820.340   -944075.707  -6703935.901
10 0 59228  21102.000000  0   -2193558.891   -938774.142  -6468749.189
10 0 59228  21222.000000  0   -3042917.335   -902005.132  -6120666.641
10 0 59228  21342.000000  0   -3838602.351   -835200.224  -5665687.183
10 0 59228  21462.000000  0   -4566251.193   -740569.884  -5111669.911
10 0 59228  21582.000000  0   -5212693.582   -621048.879  -4468209.189
10 0 59228  21702.000000  0   -5766195.948   -480225.309  -3746480.020
10 0 59228  21822.000000  0   -6216684.939   -322253.611  -2959053.530
10 0 59228  21942.000000  0   -6555942.667   -151752.817  -2119683.813
10 0 59228  22062.000000  0   -6777770.156     26306.701  -1243070.871
10 0 59228  22182.000000  0   -6878114.333    206727.218   -344600.909
10 0 59228  22302.000000  0   -6855150.665    384213.791    559930.495
10 0 59228  22422.000000  0   -6709322.066    553507.952   1454602.388
10 0 59228  22542.000000  0   -6443333.894    709521.066   2323657.317
10 0 59228  22662.000000  0   -6062102.553    847464.193   3151788.333
10 0 59228  22782.000000  0   -5572658.671    962971.091   3924416.745
10 0 59228  22902.000000  0   -4984008.340   1052210.986   4627953.529
10 0 59228  23022.000000  0   -4306957.265   1111988.397   5250039.899
10 0 59228  23142.000000  0   -3553902.691   1139827.588   5779762.564
10 0 59228  23262.000000  0   -2738598.128   1134040.270   6207842.036
10 0 59228  23382.000000  0   -1875894.806   1093774.939   6526790.993
10 0 59228  23502.000000  0    -981464.756   1019047.551   6731038.857
10 0 59228  23622.000000  0     -71513.721    910752.016   6817021.887
10 0 59228  23742.000000  0     837511.964    770650.942   6783240.855
10 0 59228  23862.000000  0    1729221.243    601346.967   6630285.426
10 0 59228  23982.000000  0    2587572.520    406235.075   6360824.738
10 0 59228  24102.000000  0    3397162.132    189436.303   5979564.879
10 0 59228  24222.000000  0    4143503.228    -44286.436   5493171.746
10 0 59228  24342.000000  0    4813288.872   -289628.793   4910160.346
10 0 59228  24462.000000  0    5394635.665   -540859.725   4240751.643
10 0 59228  24582.000000  0    5877303.189   -791948.865   3496698.374
10 0 59228  24702.000000  0    6252885.102  -1036703.542   2691081.140
10 0 59228  24822.000000  0    6514965.522  -1268912.355   1838077.081
10 0 59228  24942.000000  0    6659236.275  -1482491.156    952706.426
10 0 59228  25062.000000  0    6683573.908  -1671629.779     50562.633
10 0 59228  25182.000000  0    6588072.987  -1830934.933   -852471.633
10 0 59228  25302.000000  0    6375032.835  -1955563.894  -1740513.101
10 0 59228  25422.000000  0    6048900.735  -2041347.446  -2597965.806
10 0 59228  25542.000000  0    5616171.513  -2084897.939  -3409800.995
10 0 59228  25662.000000  0    5085248.386  -2083700.250  -4161822.838
10 0 59228  25782.000000  0    4466269.606  -2036183.675  -4840915.915
10 0 59228  25902.000000  0    3770904.113  -1941773.763  -5435270.180
10 0 59228  26022.000000  0    3012121.497  -1800922.869  -5934578.113
10 0 59228  26142.000000  0    2203944.490  -1615118.820  -6330202.364
10 0 59228  26262.000000  0    1361187.845  -1386872.128  -6615315.365
10 0 59228  26382.000000  0     499186.346  -1119682.247  -6785006.244
10 0 59228  26502.000000  0    -366480.489   -817984.300  -6836356.162
10 0 59228  26622.000000  0   -1220263.947   -487076.390  -6768482.571
10 0 59228  26742.000000  0   -2046919.092   -133028.635  -6582553.007
10 0 59228  26862.000000  0   -2831770.883    237425.409  -6281766.089
10 0 59228  26982.000000  0   -3560968.799    617012.454  -5871302.358
10 0 59228  27102.000000  0   -4221729.485    998057.732  -5358245.324
10 0 59228  27222.000000  0   -4802562.786   1372634.877  -4751470.233
10 0 59228  27342.000000  0   -5293477.727   1732726.983  -4061503.062
10 0 59228  27462.000000  0   -5686162.955   2070394.820  -3300347.073
10 0 59228  27582.000000  0   -5974137.835   2377947.574  -2481281.818
10 0 59228  27702.000000  0   -6152871.221   2648113.624  -1618635.810
10 0 59228  27822.000000  0   -6219863.614   2874207.248   -727536.142
10 0 59228  27942.000000  0   -6174690.063   3050286.791    176360.519
10 0 59228  28062.000000  0   -6019001.047   3171299.422   1077150.622
10 0 59228  28182.000000  0   -5756480.291   3233209.191   1958972.300
10 0 59228  28302.000000  0   -5392761.604   3233104.556   2806293.695
10 0 59228  28422.000000  0   -4935307.086   3169282.962   3604194.334
10 0 59228  28542.000000  0   -4393249.382   3041309.527   4338634.660
10 0 59228  28662.000000  0   -3777202.084   2850048.812   4996705.862
10 0 59228  28782.000000  0   -3099045.154   2597670.114   5566856.486
10 0 59228  28902.000000  0   -2371688.659   2287626.429   6039093.636
10 0 59228  29022.000000  0   -1608820.288   1924606.406   6405153.458
10 0 59228  29142.000000  0    -824642.646   1514461.329   6658639.119
10 0 59228  29262.000000  0     -33607.524   1064108.701   6795125.150
10 0 59228  29382.000000  0     749849.815    581414.325   6812229.871
99
